{"type": "FeatureCollection", "features": [ {"type": "Feature", "properties": {"norad_id": 29868, "name": "FENGYUN 1C DEB", "group": "fengyun-1c-debris", "lat": 49.49044667772716, "lon": 32.08291908760381, "alt_km": 593.0987249758809, "timestamp": "2025-12-21T20:41:08.233515+00:00", "meta": {"OBJECT_NAME": "FENGYUN 1C DEB", "OBJECT_ID": "1999-025FN", "EPOCH": "2025-12-21T09:09:10.844064", "MEAN_MOTION": 14.78525399, "ECCENTRICITY": 0.0195812, "INCLINATION": 97.9485, "RA_OF_ASC_NODE": 41.0202, "ARG_OF_PERICENTER": 336.0521, "MEAN_ANOMALY": 35.8619, "EPHEMERIS_TYPE": 0, "CLASSIFICATION_TYPE": "U", "NORAD_CAT_ID": 29868, "ELEMENT_SET_NO": 999, "REV_AT_EPOCH": 423, "BSTAR": 0.00049807158, "MEAN_MOTION_DOT": 4.962e-05, "MEAN_MOTION_DDOT": 0}, "tle": {"line1": "1 29868U 99025FN  25355.38137551  .00004962  00000+0  49807-3 0  9992", "line2": "2 29868  97.9485  41.0202 0195812 336.0521  35.8619 14.78525399  4236"}}, "geometry": {"type": "Point", "coordinates": [32.08291908760381, 49.49044667772716]}}, {"type": "Feature", "properties": {"norad_id": 29869, "name": "FENGYUN 1C DEB", "group": "fengyun-1c-debris", "lat": 2.6443168942351822, "lon": 106.85071624047582, "alt_km": 832.0111394299884, "timestamp": "2025-12-21T20:41:08.233524+00:00", "meta": {"OBJECT_NAME": "FENGYUN 1C DEB", "OBJECT_ID": "1999-025FP", "EPOCH": "2025-12-21T08:42:37.540800", "MEAN_MOTION": 14.36904808, "ECCENTRICITY": 0.00871555, "INCLINATION": 98.8743, "RA_OF_ASC_NODE": 285.923, "ARG_OF_PERICENTER": 345.7337, "MEAN_ANOMALY": 132.0856, "EPHEMERIS_TYPE": 0, "CLASSIFICATION_TYPE": "U", "NORAD_CAT_ID": 29869, "ELEMENT_SET_NO": 999, "REV_AT_EPOCH": 98944, "BSTAR": 0.00032602227, "MEAN_MOTION_DOT": 9.59e-06, "MEAN_MOTION_DDOT": 0}, "tle": {"line1": "1 29869U 99025FP  25355.36293450  .00000959  00000+0  32602-3 0  9999", "line2": "2 29869  98.8743 285.9230 0087155 345.7337 132.0856 14.36904808989444"}}, "geometry": {"type": "Point", "coordinates": [106.85071624047582, 2.6443168942351822]}}, {"type": "Feature", "properties": {"norad_id": 29870, "name": "FENGYUN 1C DEB", "group": "fengyun-1c-debris", "lat": -51.1760640884887, "lon": -22.827705991089967, "alt_km": 870.2515972147867, "timestamp": "2025-12-21T20:41:08.233534+00:00", "meta": {"OBJECT_NAME": "FENGYUN 1C DEB", "OBJECT_ID": "1999-025FQ", "EPOCH": "2025-12-21T11:23:55.628160", "MEAN_MOTION": 14.28982907, "ECCENTRICITY": 0.01203906, "INCLINATION": 98.4615, "RA_OF_ASC_NODE": 326.1364, "ARG_OF_PERICENTER": 166.6687, "MEAN_ANOMALY": 311.1281, "EPHEMERIS_TYPE": 0, "CLASSIFICATION_TYPE": "U", "NORAD_CAT_ID": 29870, "ELEMENT_SET_NO": 999, "REV_AT_EPOCH": 98718, "BSTAR": 3.8282023e-05, "MEAN_MOTION_DOT": 6.2e-07, "MEAN_MOTION_DDOT": 0}, "tle": {"line1": "1 29870U 99025FQ  25355.47494940  .00000062  00000+0  38282-4 0  9996", "line2": "2 29870  98.4615 326.1364 0120390 166.6687 311.1281 14.28982907987181"}}, "geometry": {"type": "Point", "coordinates": [-22.827705991089967, -51.1760640884887]}}, {"type": "Feature", "properties": {"norad_id": 29871, "name": "FENGYUN 1C DEB", "group": "fengyun-1c-debris", "lat": -13.741371083887444, "lon": -48.32237343725901, "alt_km": 757.2447644044587, "timestamp": "2025-12-21T20:41:08.233543+00:00", "meta": {"OBJECT_NAME": "FENGYUN 1C DEB", "OBJECT_ID": "1999-025FR", "EPOCH": "2025-12-19T11:04:33.422880", "MEAN_MOTION": 14.42675197, "ECCENTRICITY": 0.0058962, "INCLINATION": 98.9736, "RA_OF_ASC_NODE": 306.9383, "ARG_OF_PERICENTER": 87.8361, "MEAN_ANOMALY": 39.3084, "EPHEMERIS_TYPE": 0, "CLASSIFICATION_TYPE": "U", "NORAD_CAT_ID": 29871, "ELEMENT_SET_NO": 999, "REV_AT_EPOCH": 98798, "BSTAR": 0.00063122, "MEAN_MOTION_DOT": 2.095e-05, "MEAN_MOTION_DDOT": 0}, "tle": {"line1": "1 29871U 99025FR  25353.46149795  .00002095  00000+0  63122-3 0  9997", "line2": "2 29871  98.9736 306.9383 0058962  87.8361  39.3084 14.42675197987980"}}, "geometry": {"type": "Point", "coordinates": [-48.32237343725901, -13.741371083887444]}}, {"type": "Feature", "properties": {"norad_id": 29872, "name": "FENGYUN 1C DEB", "group": "fengyun-1c-debris", "lat": 43.24657276140281, "lon": 3.657698332479468, "alt_km": 833.4480182313855, "timestamp": "2025-12-21T20:41:08.233552+00:00", "meta": {"OBJECT_NAME": "FENGYUN 1C DEB", "OBJECT_ID": "1999-025FS", "EPOCH": "2025-12-21T13:48:24.061536", "MEAN_MOTION": 14.38992958, "ECCENTRICITY": 0.02349957, "INCLINATION": 98.3446, "RA_OF_ASC_NODE": 11.3139, "ARG_OF_PERICENTER": 286.9309, "MEAN_ANOMALY": 70.6241, "EPHEMERIS_TYPE": 0, "CLASSIFICATION_TYPE": "U", "NORAD_CAT_ID": 29872, "ELEMENT_SET_NO": 999, "REV_AT_EPOCH": 98719, "BSTAR": 0.00043266197, "MEAN_MOTION_DOT": 1.789e-05, "MEAN_MOTION_DDOT": 0}, "tle": {"line1": "1 29872U 99025FS  25355.57527849  .00001789  00000+0  43266-3 0  9998", "line2": "2 29872  98.3446  11.3139 0234995 286.9309  70.6241 14.38992958987193"}}, "geometry": {"type": "Point", "coordinates": [3.657698332479468, 43.24657276140281]}}, {"type": "Feature", "properties": {"norad_id": 29873, "name": "FENGYUN 1C DEB", "group": "fengyun-1c-debris", "lat": -42.01042532463406, "lon": 27.580054160670258, "alt_km": 862.0297155968537, "timestamp": "2025-12-21T20:41:08.233562+00:00", "meta": {"OBJECT_NAME": "FENGYUN 1C DEB", "OBJECT_ID": "1999-025FT", "EPOCH": "2025-12-21T14:45:59.829984", "MEAN_MOTION": 13.98149768, "ECCENTRICITY": 0.0092484, "INCLINATION": 99.4412, "RA_OF_ASC_NODE": 215.9461, "ARG_OF_PERICENTER": 174.4996, "MEAN_ANOMALY": 246.6614, "EPHEMERIS_TYPE": 0, "CLASSIFICATION_TYPE": "U", "NORAD_CAT_ID": 29873, "ELEMENT_SET_NO": 999, "REV_AT_EPOCH": 96439, "BSTAR": 0.00019709038, "MEAN_MOTION_DOT": 2.44e-06, "MEAN_MOTION_DDOT": 0}, "tle": {"line1": "1 29873U 99025FT  25355.61527581  .00000244  00000+0  19709-3 0  9997", "line2": "2 29873  99.4412 215.9461 0092484 174.4996 246.6614 13.98149768964391"}}, "geometry": {"type": "Point", "coordinates": [27.580054160670258, -42.01042532463406]}}, {"type": "Feature", "properties": {"norad_id": 29874, "name": "FENGYUN 1C DEB", "group": "fengyun-1c-debris", "lat": 8.145852139361624, "lon": -108.81233803157447, "alt_km": 742.6901281971677, "timestamp": "2025-12-21T20:41:08.233571+00:00", "meta": {"OBJECT_NAME": "FENGYUN 1C DEB", "OBJECT_ID": "1999-025FU", "EPOCH": "2025-12-21T06:06:41.378112", "MEAN_MOTION": 14.2892757, "ECCENTRICITY": 0.0104415, "INCLINATION": 98.3793, "RA_OF_ASC_NODE": 251.8129, "ARG_OF_PERICENTER": 326.3176, "MEAN_ANOMALY": 159.1874, "EPHEMERIS_TYPE": 0, "CLASSIFICATION_TYPE": "U", "NORAD_CAT_ID": 29874, "ELEMENT_SET_NO": 999, "REV_AT_EPOCH": 96969, "BSTAR": 0.0022784, "MEAN_MOTION_DOT": 6.065e-05, "MEAN_MOTION_DDOT": 0}, "tle": {"line1": "1 29874U 99025FU  25355.25464558  .00006065  00000+0  22784-2 0  9995", "line2": "2 29874  98.3793 251.8129 0104415 326.3176 159.1874 14.28927570969691"}}, "geometry": {"type": "Point", "coordinates": [-108.81233803157447, 8.145852139361624]}}, {"type": "Feature", "properties": {"norad_id": 29875, "name": "FENGYUN 1C DEB", "group": "fengyun-1c-debris", "lat": 78.63892096106558, "lon": -0.47064830660335955, "alt_km": 759.5836009141385, "timestamp": "2025-12-21T20:41:08.233581+00:00", "meta": {"OBJECT_NAME": "FENGYUN 1C DEB", "OBJECT_ID": "1999-025FV", "EPOCH": "2025-12-21T02:01:56.529120", "MEAN_MOTION": 14.24879605, "ECCENTRICITY": 0.008284, "INCLINATION": 98.4039, "RA_OF_ASC_NODE": 46.155, "ARG_OF_PERICENTER": 39.0966, "MEAN_ANOMALY": 18.0575, "EPHEMERIS_TYPE": 0, "CLASSIFICATION_TYPE": "U", "NORAD_CAT_ID": 29875, "ELEMENT_SET_NO": 999, "REV_AT_EPOCH": 98441, "BSTAR": 2.812021e-05, "MEAN_MOTION_DOT": 2.7e-07, "MEAN_MOTION_DDOT": 0}, "tle": {"line1": "1 29875U 99025FV  25355.08468205  .00000027  00000+0  28120-4 0  9994", "line2": "2 29875  98.4039  46.1550 0082840  39.0966  18.0575 14.24879605984410"}}, "geometry": {"type": "Point", "coordinates": [-0.47064830660335955, 78.63892096106558]}}, {"type": "Feature", "properties": {"norad_id": 29876, "name": "FENGYUN 1C DEB", "group": "fengyun-1c-debris", "lat": -6.3202679657538, "lon": -135.020934585926, "alt_km": 870.3849132571013, "timestamp": "2025-12-21T20:41:08.233590+00:00", "meta": {"OBJECT_NAME": "FENGYUN 1C DEB", "OBJECT_ID": "1999-025FW", "EPOCH": "2025-12-21T03:09:37.600416", "MEAN_MOTION": 14.2030235, "ECCENTRICITY": 0.0061019, "INCLINATION": 98.3321, "RA_OF_ASC_NODE": 45.2211, "ARG_OF_PERICENTER": 352.9097, "MEAN_ANOMALY": 62.0176, "EPHEMERIS_TYPE": 0, "CLASSIFICATION_TYPE": "U", "NORAD_CAT_ID": 29876, "ELEMENT_SET_NO": 999, "REV_AT_EPOCH": 98036, "BSTAR": 0.00011294174, "MEAN_MOTION_DOT": 2.05e-06, "MEAN_MOTION_DDOT": 0}, "tle": {"line1": "1 29876U 99025FW  25355.13168519  .00000205  00000+0  11294-3 0  9997", "line2": "2 29876  98.3321  45.2211 0061019 352.9097  62.0176 14.20302350980365"}}, "geometry": {"type": "Point", "coordinates": [-135.020934585926, -6.3202679657538]}}, {"type": "Feature", "properties": {"norad_id": 29877, "name": "FENGYUN 1C DEB", "group": "fengyun-1c-debris", "lat": -14.8305699159557, "lon": 178.6419385063529, "alt_km": 780.5931004591157, "timestamp": "2025-12-21T20:41:08.233599+00:00", "meta": {"OBJECT_NAME": "FENGYUN 1C DEB", "OBJECT_ID": "1999-025FX", "EPOCH": "2025-12-20T19:19:26.061600", "MEAN_MOTION": 14.24807583, "ECCENTRICITY": 0.00462407, "INCLINATION": 98.5369, "RA_OF_ASC_NODE": 359.8938, "ARG_OF_PERICENTER": 194.5796, "MEAN_ANOMALY": 343.0189, "EPHEMERIS_TYPE": 0, "CLASSIFICATION_TYPE": "U", "NORAD_CAT_ID": 29877, "ELEMENT_SET_NO": 999, "REV_AT_EPOCH": 98088, "BSTAR": 0.00031289185, "MEAN_MOTION_DOT": 6.95e-06, "MEAN_MOTION_DDOT": 0}, "tle": {"line1": "1 29877U 99025FX  25354.80516275  .00000695  00000+0  31289-3 0  9996", "line2": "2 29877  98.5369 359.8938 0046240 194.5796 343.0189 14.24807583980880"}}, "geometry": {"type": "Point", "coordinates": [178.6419385063529, -14.8305699159557]}}]}